GLOBALSTAR M068         
1 32266U 07048D   24128.37135771 -.00000024  00000+0  44489-3 0  9997
2 32266  51.9871  99.2791 0001012 343.7183 181.4905 12.62788015766571
GLOBALSTAR M079         
1 37188U 10054A   24127.81513375 -.00000088  00000+0  90599-4 0  9998
2 37188  52.0039 296.8478 0001026 111.2187 357.8368 12.62269323625135
GLOBALSTAR M074         
1 37189U 10054B   24128.45534337 -.00000095  00000+0  51342-4 0  9992
2 37189  52.0015 294.2852 0000748 109.5895 269.3909 12.62268119625897
GLOBALSTAR M076         
1 37190U 10054C   24127.76752337 -.00000067  00000+0  20427-3 0  9997
2 37190  52.0029 296.5110 0000948 138.5888 234.7721 12.62278309625454
GLOBALSTAR M077         
1 37191U 10054D   24128.10606966 -.00000098  00000+0  30214-4 0  9993
2 37191  52.0065 252.2211 0000582 129.2199  41.9520 12.62272395626604
GLOBALSTAR M075         
1 37192U 10054E   24128.57380954 -.00000075  00000+0  15878-3 0  9994
2 37192  51.9960 336.5409 0000935  93.6087 284.5993 12.62273597625157
GLOBALSTAR M073         
1 37193U 10054F   24127.62269218 -.00000110  00000+0 -33884-4 0  9998
2 37193  52.0054 252.9451 0000722 131.4441 242.0793 12.62264573626490
GLOBALSTAR M083         
1 37739U 11033A   24128.52703388 -.00000068  00000+0  20003-3 0  9992
2 37739  51.9843 199.4778 0000455 101.8053   4.2148 12.62269814595984
GLOBALSTAR M088         
1 37740U 11033B   24127.72306567 -.00000098  00000+0  29718-4 0  9999
2 37740  51.9714 107.7563 0000520  61.7468 109.6133 12.62267878591061
GLOBALSTAR M091         
1 37741U 11033C   24127.57792622 -.00000109  00000+0 -31589-4 0  9997
2 37741  52.0004  71.0264 0000861  60.7611 110.1379 12.62262140591835
GLOBALSTAR M085         
1 37742U 11033D   24128.19844399 -.00000074  00000+0  16734-3 0  9990
2 37742  51.9891  20.5367 0001014  74.9367  97.3995 12.62270482592915
GLOBALSTAR M081         
1 37743U 11033E   24127.88754873 -.00000090  00000+0  79044-4 0  9995
2 37743  51.9980  24.0199 0001000  86.6105 352.0525 12.62264055592539
GLOBALSTAR M089         
1 37744U 11033F   24128.02551313 -.00000072  00000+0  17647-3 0  9997
2 37744  51.9943 337.9074 0000729 117.3501  47.3032 12.62263123593641
GLOBALSTAR M084         
1 38040U 11080A   24128.48001595 -.00000061  00000+0  24108-3 0  9999
2 38040  51.9994 203.5927 0000382 171.3381 201.4776 12.62262032571713
GLOBALSTAR M080         
1 38041U 11080B   24128.21758528 -.00000067  00000+0  20480-3 0  9991
2 38041  52.0047 205.8575 0000669 174.9790 203.6838 12.62272158571667
GLOBALSTAR M082         
1 38042U 11080C   24127.86847889 -.00000063  00000+0  22898-3 0  9992
2 38042  52.0053 162.3243 0000598  36.0497 135.0389 12.62269272572187
GLOBALSTAR M092         
1 38043U 11080D   24128.53448073 -.00000090  00000+0  78728-4 0  9994
2 38043  52.0077 250.6485 0000408 132.5658 307.9813 12.62279880570933
GLOBALSTAR M090         
1 38044U 11080E   24127.81546677 -.00000066  00000+0  20870-3 0  9991
2 38044  51.9862 156.8163 0000383  58.6369 112.3193 12.62262911572290
GLOBALSTAR M086         
1 38045U 11080F   24127.84324448 -.00000066  00000+0  20955-3 0  9999
2 38045  51.9872 157.2512 0001077 134.8823  42.4040 12.62270552572247
GLOBALSTAR M097         
1 39072U 13005A   24128.22695362 -.00000119  00000+0 -83036-4 0  9998
2 39072  52.0053  70.2164 0000776  71.6558 288.4393 12.62262537519626
GLOBALSTAR M093         
1 39073U 13005B   24128.51703744 -.00000110  00000+0 -33777-4 0  9993
2 39073  51.9821  63.2842 0000921  70.9550 289.1416 12.62263767519652
GLOBALSTAR M094         
1 39074U 13005C   24127.88360102 -.00000069  00000+0  19550-3 0  9994
2 39074  51.9972 339.1922 0001081  92.6107 267.4884 12.62265442521069
GLOBALSTAR M096         
1 39075U 13005D   24128.13426496 -.00000081  00000+0  12722-3 0  9991
2 39075  52.0095  26.6244 0001073  75.4941 284.6044 12.62265073520360
GLOBALSTAR M078         
1 39076U 13005E   24128.34596242 -.00000100  00000+0  18319-4 0  9993
2 39076  51.9851 111.0446 0001195  17.5095 342.5812 12.62268555518872
GLOBALSTAR M095         
1 39077U 13005F   24128.37155538 -.00000106  00000+0 -10802-4 0  9992
2 39077  51.9783 108.3593 0000989  44.4225 315.6721 12.62265953518883
GLOBALSTAR M087         
1 52888U 22064A   24128.08594895 -.00000069  00000+0  11208-3 0  9990
2 52888  51.9771 351.6995 0008586 259.7275 100.2657 13.37572398 92027
